STARLINK-5419           
1 54854U 22177AL  23347.87428481  .00000512  00000+0  52973-4 0  9993
2 54854  43.0027 238.7929 0000972 248.3177 111.7562 15.02538147 54237
STARLINK-5416           
1 54855U 22177AM  23347.87761437 -.00000286  00000+0 -61388-5 0  9996
2 54855  43.0029 238.8172 0001169 258.5357 101.5354 15.02535023 54239
STARLINK-5086           
1 54856U 22177AN  23347.85652073  .00001698  00000+0  14068-3 0  9997
2 54856  43.0024 238.6599 0001297 267.6445  92.4249 15.02546046 54235
STARLINK-5078           
1 54857U 22177AP  23347.86762592 -.00000452  00000+0 -18369-4 0  9995
2 54857  43.0032 238.7458 0000925 236.7655 123.3099 15.02535743 54236
STARLINK-5407           
1 54858U 22177AQ  23347.86984827  .00000439  00000+0  47574-4 0  9996
2 54858  43.0020 238.7587 0000976 224.5939 135.4825 15.02548212 54239
STARLINK-5409           
1 54859U 22177AR  23347.85985116  .00001428  00000+0  12078-3 0  9997
2 54859  43.0029 238.6831 0000979 271.0622  89.0108 15.02539293 54236
STARLINK-5406           
1 54860U 22177AS  23347.85430416  .00000453  00000+0  48623-4 0  9990
2 54860  43.0026 238.6434 0001204 266.6744  93.3961 15.02536638 54236
STARLINK-5400           
1 54861U 22177AT  23347.87094914  .00000657  00000+0  63726-4 0  9999
2 54861  43.0031 238.7676 0001040 264.0684  96.0040 15.02541708 54237
STARLINK-5403           
1 54862U 22177AU  23347.89426367  .00001211  00000+0  10467-3 0  9993
2 54862  43.0030 238.9550 0001050 256.6287 103.4438 15.02540796 54237
STARLINK-5405           
1 54863U 22177AV  23347.86318093  .00001040  00000+0  92022-4 0  9995
2 54863  43.0036 238.7100 0001189 271.2667  88.8040 15.02546667 54239
STARLINK-5359           
1 54864U 22177AW  23347.85097602  .00000406  00000+0  45106-4 0  9991
2 54864  43.0033 238.6167 0000664 241.4139 118.6636 15.02541106 54235
STARLINK-5411           
1 54865U 22177AX  23347.86651063  .00001751  00000+0  14464-3 0  9996
2 54865  43.0025 238.7355 0001226 267.9689  92.1013 15.02545794 54237
STARLINK-5398           
1 54866U 22177AY  23347.84098615  .00000115  00000+0  23572-4 0  9997
2 54866  43.0029 238.5423 0001172 265.2765  94.7943 15.02537923 54237
STARLINK-5396           
1 54867U 22177AZ  23347.85319620  .00000240  00000+0  32866-4 0  9996
2 54867  43.0033 238.6339 0001099 252.5967 107.4755 15.02537462 54232
STARLINK-5379           
1 54868U 22177BA  23347.83654070 -.00002036  00000+0 -13566-3 0  9998
2 54868  43.0026 238.5077 0001208 270.8742  89.1962 15.02534889 54235
STARLINK-5402           
1 54869U 22177BB  23347.84653707 -.00000369  00000+0 -12233-4 0  9994
2 54869  43.0036 238.5845 0001185 265.1131  94.9576 15.02538038 54238
STARLINK-5401           
1 54870U 22177BC  23347.90524266  .00000203  00000+0  30083-4 0  9998
2 54870  43.0028 238.1642 0001032 262.5533  97.5192 15.02539938 54244
STARLINK-5397           
1 54871U 22177BD  23347.84763497  .00000526  00000+0  53956-4 0  9995
2 54871  43.0032 238.5926 0001259 263.4475  96.6224 15.02547552 54231
STARLINK-5390           
1 54872U 22177BE  23347.89748477  .00003419  00000+0  26802-3 0  9995
2 54872  43.0029 238.1333 0001104 256.4402 103.6317 15.02539523 54249
STARLINK-5091           
1 54873U 22177BF  23347.89969995  .00000377  00000+0  42982-4 0  9994
2 54873  43.0030 238.1211 0001177 244.5119 115.5602 15.02548290 54240
STARLINK-5277           
1 55269U 23010A   23347.94664421  .00000408  00000+0  42017-4 0  9997
2 55269  69.9998 303.8401 0002557 258.0014 102.0859 14.98330668 50724
STARLINK-5301           
1 55270U 23010B   23347.89241026 -.00000002  00000+0  76604-5 0  9996
2 55270  69.9998 304.0518 0002476 254.7268 105.3617 14.98327721 50434
STARLINK-5306           
1 55271U 23010C   23347.95081786 -.00000095  00000+0 -17741-6 0  9990
2 55271  69.9998 303.8544 0002365 253.0211 107.0689 14.98329249 50444
STARLINK-5310           
1 55272U 23010D   23347.89658374  .00000558  00000+0  54571-4 0  9999
2 55272  70.0003 304.0667 0002344 250.4345 109.6561 14.98328980 50437
STARLINK-5291           
1 55273U 23010E   23347.93846289  .00000139  00000+0  19443-4 0  9993
2 55273  69.9997 303.8110 0002457 264.6632  95.4247 14.98324758 50441
STARLINK-5236           
1 55274U 23010F   23347.93807229 -.00000381  00000+0 -24111-4 0  9994
2 55274  69.9995 283.9406 0002245 260.7399  99.3506 14.98332646 50938
STARLINK-5260           
1 55275U 23010G   23347.93389776  .00000043  00000+0  11369-4 0  9991
2 55275  69.9991 283.9257 0002464 264.1724  95.9154 14.98331600 50932
STARLINK-5261           
1 55276U 23010H   23347.92972541 -.00002340  00000+0 -18831-3 0  9993
2 55276  69.9993 283.9099 0002011 257.0143 103.0792 14.98344785 50929
STARLINK-5299           
1 55277U 23010J   23347.93829518 -.00000114  00000+0 -18070-5 0  9994
2 55277  70.0005 303.8115 0002307 240.5020 119.5909 14.98329440 50447
STARLINK-5289           
1 55278U 23010K   23347.92159674 -.00005091  00000+0 -41889-3 0  9994
2 55278  70.0004 303.7501 0002149 264.3224  95.7690 14.98357543 50435
STARLINK-5323           
1 55279U 23010L   23347.93412615  .00002862  00000+0  24752-3 0  9994
2 55279  70.0013 303.7980 0002439 244.3009 115.7898 14.98331792 50440
STARLINK-5331           
1 55280U 23010M   23347.91341736 -.00005938  00000+0 -48997-3 0  9995
2 55280  69.9996 303.7179 0002056 261.8465  98.2460 14.98359159 50430
STARLINK-5298           
1 55281U 23010N   23347.92994665  .00001183  00000+0  10693-3 0  9990
2 55281  70.0003 303.7801 0002230 262.3382  97.7524 14.98327504 50437
STARLINK-5330           
1 55282U 23010P   23347.90907959  .00000714  00000+0  67590-4 0  9997
2 55282  70.0003 303.7034 0002235 259.1019 100.9889 14.98331014 50434
STARLINK-5317           
1 55283U 23010Q   23347.92577172  .00000168  00000+0  21910-4 0  9999
2 55283  70.0000 303.7655 0002679 263.8430  96.2424 14.98331441 50438
STARLINK-5337           
1 55284U 23010R   23347.90490401 -.00000049  00000+0  36940-5 0  9996
2 55284  70.0002 303.6889 0002531 258.3803 101.7072 14.98330998 50436
STARLINK-5332           
1 55285U 23010S   23347.94199434  .00000102  00000+0  16333-4 0  9995
2 55285  69.9999 263.6708 0002411 257.0493 103.0397 14.98331856 52309
STARLINK-5338           
1 55286U 23010T   23347.92137616 -.00003569  00000+0 -29139-3 0  9997
2 55286  69.9985 283.8806 0002848 265.8874  94.1960 14.98340964 50924
STARLINK-5341           
1 55287U 23010U   23347.93800618  .00000234  00000+0  27374-4 0  9992
2 55287  70.0009 263.9772 0002388 223.5322 136.5649 14.98328857 51411
STARLINK-5311           
1 55288U 23010V   23347.90901923 -.00000103  00000+0 -84554-6 0  9993
2 55288  70.0000 283.8371 0002141 246.0005 114.0930 14.98329889 50929
STARLINK-5320           
1 55289U 23010W   23347.92555000 -.00009087  00000+0 -75397-3 0  9999
2 55289  69.9997 283.8955 0001729 253.1911 106.9058 14.98372645 50925
STARLINK-5266           
1 55290U 23010X   23347.91720149 -.00000782  00000+0 -57757-4 0  9992
2 55290  70.0008 283.8679 0002361 226.8941 133.2021 14.98329050 50924
STARLINK-5327           
1 55291U 23010Y   23347.91736798 -.00000089  00000+0  29729-6 0  9999
2 55291  69.9997 283.8675 0002276 252.7407 107.3503 14.98330119 50920
STARLINK-5325           
1 55292U 23010Z   23347.90467918  .00000071  00000+0  13720-4 0  9996
2 55292  70.0002 283.8214 0002352 254.8826 105.2073 14.98330774 50929
STARLINK-5287           
1 55293U 23010AA  23347.90885521 -.00000271  00000+0 -14905-4 0  9991
2 55293  69.9999 283.8373 0002423 253.8039 106.2853 14.98327858 50928
STARLINK-5286           
1 55294U 23010AB  23347.91325038 -.00000162  00000+0 -58221-5 0  9994
2 55294  70.0000 303.7181 0002364 257.5982 102.4913 14.98333629 50430
STARLINK-5293           
1 55295U 23010AC  23347.28739455  .00000953  00000+0  87611-4 0  9997
2 55295  69.9994 305.5507 0002244 264.6968  95.3935 14.98347390 50346
STARLINK-5285           
1 55296U 23010AD  23347.89215967 -.00000552  00000+0 -38464-4 0  9991
2 55296  70.0011 283.7798 0002410 246.6532 113.4373 14.98326389 51806
STARLINK-5284           
1 55297U 23010AE  23347.90050674 -.00000536  00000+0 -37131-4 0  9998
2 55297  70.0004 283.8083 0002340 244.8493 115.2424 14.98331635 50924
STARLINK-5272           
1 55298U 23010AF  23347.88798194 -.00000264  00000+0 -14355-4 0  9993
2 55298  70.0005 283.7635 0002309 255.0474 105.0430 14.98332360 51804
STARLINK-5270           
1 55299U 23010AG  23347.89232373 -.00000356  00000+0 -22065-4 0  9996
2 55299  70.0003 283.7801 0002196 249.3679 110.7244 14.98327361 51806
STARLINK-5308           
1 55300U 23010AH  23347.88380802  .00000270  00000+0  30409-4 0  9993
2 55300  70.0012 283.7509 0002140 245.6332 114.4604 14.98324340 50925
STARLINK-5321           
1 55302U 23010AK  23347.89633217 -.00000194  00000+0 -84715-5 0  9994
2 55302  70.0003 283.7910 0002235 250.3201 109.7717 14.98328142 50922
STARLINK-5322           
1 55303U 23010AL  23347.90072944  .00000300  00000+0  32888-4 0  9991
2 55303  70.0003 303.6747 0002028 280.0862  80.0069 14.98331218 50431
STARLINK-5318           
1 55304U 23010AM  23347.94639499 -.00000360  00000+0 -22379-4 0  9992
2 55304  70.0007 283.5661 0002267 241.0703 119.0229 14.98329670 50938
STARLINK-5316           
1 55305U 23010AN  23347.94225261 -.00001177  00000+0 -90866-4 0  9994
2 55305  69.9993 283.9569 0002300 243.0670 117.0255 14.98325569 50934
STARLINK-5295           
1 55306U 23010AP  23347.91280440 -.00000177  00000+0 -70106-5 0  9997
2 55306  70.0012 263.9792 0002372 255.9077 104.1819 14.98329595 51429
STARLINK-5288           
1 55307U 23010AQ  23347.91698139 -.00001682  00000+0 -13323-3 0  9994
2 55307  70.0003 263.9929 0001975 245.9402 114.1550 14.98334993 51422
STARLINK-5292           
1 55308U 23010AR  23347.89628290 -.00001122  00000+0 -86255-4 0  9997
2 55308  70.0001 263.9162 0002235 258.5450 101.5458 14.98319532 52298
